SL-16 R/B               
1 22566U 93016B   26061.78289701  .00000337  00000+0  19761-3 0  9996
2 22566  71.0056 229.6875 0011300 323.8063  36.2294 14.15304608701197
COSMOS 2242             
1 22626U 93024A   26061.68218392  .00002191  00000+0  19019-3 0  9995
2 22626  82.5159 273.4208 0015715 333.9984  26.0447 14.96514959779340
SL-16 R/B               
1 22803U 93059B   26061.63052620  .00000092  00000+0  69181-4 0  9999
2 22803  70.9917  26.0115 0018827 226.4888 133.4672 14.17231937678532
ARIANE 40 R/B           
1 22830U 93061H   26061.78534663  .00000250  00000+0  10739-3 0  9990
2 22830  98.4932 130.8090 0009674 307.9331  52.0979 14.32856652693119
COSMOS 2278             
1 23087U 94023A   26061.80824059  .00000329  00000+0  19661-3 0  9998
2 23087  71.0540 189.4927 0007614  27.3073 332.8449 14.14374940643833
SL-16 R/B               
1 23088U 94023B   26061.50434279 -.00000064  00000+0 -81939-5 0  9994
2 23088  70.9986  85.9784 0005562 292.6207  67.4327 14.15013490645078
SL-16 R/B               
1 23343U 94074B   26061.70219925  .00000602  00000+0  87377-4 0  9992
2 23343  97.7118  92.8027 0005331 237.3561 240.1306 14.79398306686216
SL-16 R/B               
1 23405U 94077B   26061.84207684 -.00000251  00000+0 -10360-3 0  9997
2 23405  70.9850   6.8935 0003469 221.4268 138.6592 14.15562544615264
ARIANE 40+ R/B          
1 23561U 95021B   26061.80737384  .00000356  00000+0  12730-3 0  9998
2 23561  98.4512 133.3829 0007357 154.7497 316.2603 14.39766516618257
SL-16 R/B               
1 23705U 95058B   26061.77806798 -.00000072  00000+0 -12568-4 0  9997
2 23705  71.0209 194.7644 0011039 138.0048 222.1923 14.15492688566872
SL-16 R/B               
1 24298U 96051B   26061.80058821  .00000081  00000+0  70493-4 0  9998
2 24298  70.7594 189.8191 0015707 158.1581 202.0211 14.12413535520672
ORBVIEW 2 (SEASTAR)     
1 24883U 97037A   26061.44767048  .00000415  00000+0  16067-3 0  9998
2 24883  98.8553 225.5681 0003188  86.4858 273.6691 14.35488491507433
